IRIDIUM 39              
1 25042U 97069D   25262.16763744  .00000600  00000+0  15154-3 0  9993
2 25042  86.3986 170.8785 0017890   0.3485 359.7728 14.49330350462573
IRIDIUM 38              
1 25043U 97069E   25262.51649478  .00000478  00000+0  15095-3 0  9997
2 25043  86.4024 193.4930 0003563 114.3000 245.8571 14.38194347459515
IRIDIUM 42              
1 25077U 97077A   25262.56900262  .00000435  00000+0  14168-3 0  9992
2 25077  86.4019 199.7494 0002479 104.0405 256.1068 14.36423667454744
IRIDIUM 44              
1 25078U 97077B   25262.47709424  .00000424  00000+0  12762-3 0  9996
2 25078  86.4035 181.4879 0004111  82.1311 278.0355 14.40318675457275
IRIDIUM 45              
1 25104U 97082A   25262.54797276  .00016602  00000+0  54532-3 0  9998
2 25104  86.3625   1.9599 0107769 338.0485  21.6161 15.25890333466415
IRIDIUM 24              
1 25105U 97082B   25262.46732126  .00000568  00000+0  16620-3 0  9993
2 25105  86.3911  40.2803 0013225 121.3849 238.8647 14.42187755456806
IRIDIUM 51              
1 25262U 98018A   25262.47280647  .00049755  00000+0  89225-3 0  9996
2 25262  86.3859   8.9171 0074073 245.0717 114.2832 15.46646056461567
IRIDIUM 57              
1 25273U 98019B   25262.59632962  .00000317  00000+0  10246-3 0  9991
2 25273  86.3910 105.6993 0002215  90.3900 269.7550 14.35950039438336
